start=new Date('2022-08-24T00:00:00.000Z').valueOf();
sats=[{"COUNTRY_CODE":"US","OBJECT_TYPE":"PAYLOAD","FILE":"3545624","MEAN_ANOMALY":"265.7133","TLE_LINE2":"2 48033  53.0557  20.7594 0001217  94.3995 265.7133 15.06392536 79599","MEAN_MOTION_DOT":"0.00000240","EPHEMERIS_TYPE":"0","MEAN_MOTION":"15.06392536","PERIOD":"95.593","ECCENTRICITY":"0.00012170","EPOCH":"2022-08-23T15:49:55.323840","REV_AT_EPOCH":"7959","NORAD_CAT_ID":"48033","DECAY_DATE":null,"TLE_LINE1":"1 48033U 21024BJ  22235.65966810  .00000240  00000-0  35038-4 0  9991","LAUNCH_DATE":"2021-03-24","RCS_SIZE":"LARGE","ARG_OF_PERICENTER":"94.3995","GP_ID":"210860847","INCLINATION":"53.0557","SITE":"AFETR","BSTAR":"0.00003503800000","MEAN_MOTION_DDOT":"0.0000000000000","SEMIMAJOR_AXIS":"6925.371","TIME_SYSTEM":"UTC","ELEMENT_SET_NO":"999","MEAN_ELEMENT_THEORY":"SGP4","CENTER_NAME":"EARTH","REF_FRAME":"TEME","APOAPSIS":"548.079","PERIAPSIS":"546.394","CLASSIFICATION_TYPE":"U","OBJECT_NAME":"STARLINK-2286","OBJECT_ID":"2021-024BJ","RA_OF_ASC_NODE":"20.7594"},{"EPHEMERIS_TYPE":"0","MEAN_MOTION":"15.06390672","TLE_LINE2":"2 48034  53.0565  20.3695 0001456  88.2403 271.8753 15.06390672 79605","MEAN_ANOMALY":"271.8753","MEAN_MOTION_DOT":"0.00000627","OBJECT_TYPE":"PAYLOAD","FILE":"3545624","COUNTRY_CODE":"US","GP_ID":"210859603","ARG_OF_PERICENTER":"88.2403","RCS_SIZE":"LARGE","TLE_LINE1":"1 48034U 21024BK  22235.74445155  .00000627  00000-0  60991-4 0  9991","LAUNCH_DATE":"2021-03-24","DECAY_DATE":null,"EPOCH":"2022-08-23T17:52:00.613920","NORAD_CAT_ID":"48034","REV_AT_EPOCH":"7960","ECCENTRICITY":"0.00014560","PERIOD":"95.593","TIME_SYSTEM":"UTC","SEMIMAJOR_AXIS":"6925.377","BSTAR":"0.00006099100000","MEAN_MOTION_DDOT":"0.0000000000000","SITE":"AFETR","INCLINATION":"53.0565","OBJECT_NAME":"STARLINK-2288","OBJECT_ID":"2021-024BK","RA_OF_ASC_NODE":"20.3695","CLASSIFICATION_TYPE":"U","REF_FRAME":"TEME","APOAPSIS":"548.250","PERIAPSIS":"546.234","MEAN_ELEMENT_THEORY":"SGP4","CENTER_NAME":"EARTH","ELEMENT_SET_NO":"999"},{"SITE":"AFETR","INCLINATION":"53.0545","SEMIMAJOR_AXIS":"6925.321","MEAN_MOTION_DDOT":"0.0000000000000","BSTAR":"0.00018157000000","TIME_SYSTEM":"UTC","CENTER_NAME":"EARTH","MEAN_ELEMENT_THEORY":"SGP4","ELEMENT_SET_NO":"999","APOAPSIS":"548.315","PERIAPSIS":"546.057","REF_FRAME":"TEME","CLASSIFICATION_TYPE":"U","RA_OF_ASC_NODE":"20.0497","OBJECT_NAME":"STARLINK-2295","OBJECT_ID":"2021-024BM","COUNTRY_CODE":"US","MEAN_MOTION_DOT":"0.00002425","MEAN_ANOMALY":"279.5380","TLE_LINE2":"2 48036  53.0545  20.0497 0001630  80.5793 279.5380 15.06408969 79614","FILE":"3545624","OBJECT_TYPE":"PAYLOAD","MEAN_MOTION":"15.06408969","EPHEMERIS_TYPE":"0","ECCENTRICITY":"0.00016300","PERIOD":"95.592","DECAY_DATE":null,"REV_AT_EPOCH":"7961","EPOCH":"2022-08-23T19:38:08.777760","NORAD_CAT_ID":"48036","RCS_SIZE":"LARGE","LAUNCH_DATE":"2021-03-24","TLE_LINE1":"1 48036U 21024BM  22235.81815715  .00002425  00000-0  18157-3 0  9998","GP_ID":"210859851","ARG_OF_PERICENTER":"80.5793"},{"CLASSIFICATION_TYPE":"U","OBJECT_ID":"2021-027A","OBJECT_NAME":"STARLINK-2048","RA_OF_ASC_NODE":"144.9999","ELEMENT_SET_NO":"999","MEAN_ELEMENT_THEORY":"SGP4","CENTER_NAME":"EARTH","REF_FRAME":"TEME","PERIAPSIS":"546.112","APOAPSIS":"548.294","TIME_SYSTEM":"UTC","INCLINATION":"53.0554","SITE":"AFETR","BSTAR":"0.00002017200000","MEAN_MOTION_DDOT":"0.0000000000000","SEMIMAJOR_AXIS":"6925.338","TLE_LINE1":"1 48092U 21027A   22235.88961296  .00000019  00000-0  20172-4 0  9994","LAUNCH_DATE":"2021-04-07","RCS_SIZE":"LARGE","GP_ID":"210860354","ARG_OF_PERICENTER":"79.2090","PERIOD":"95.592","ECCENTRICITY":"0.00015750","REV_AT_EPOCH":"7845","EPOCH":"2022-08-23T21:21:02.559744","NORAD_CAT_ID":"48092","DECAY_DATE":null,"FILE":"3545624","OBJECT_TYPE":"PAYLOAD","TLE_LINE2":"2 48092  53.0554 144.9999 0001575  79.2090 280.9076 15.06403400 78456","MEAN_ANOMALY":"280.9076","MEAN_MOTION_DOT":"0.00000019","EPHEMERIS_TYPE":"0","MEAN_MOTION":"15.06403400","COUNTRY_CODE":"US"},{"COUNTRY_CODE":"US","EPHEMERIS_TYPE":"0","MEAN_MOTION":"15.06395108","FILE":"3545624","OBJECT_TYPE":"PAYLOAD","TLE_LINE2":"2 48093  53.0545 210.9805 0001586  71.9259 288.1903 15.06395108 77515","MEAN_ANOMALY":"288.1903","MEAN_MOTION_DOT":"0.00001245","NORAD_CAT_ID":"48093","EPOCH":"2022-08-23T15:40:40.933920","REV_AT_EPOCH":"7751","DECAY_DATE":null,"PERIOD":"95.592","ECCENTRICITY":"0.00015860","GP_ID":"210859110","ARG_OF_PERICENTER":"71.9259","TLE_LINE1":"1 48093U 21027B   22235.65325155  .00001245  00000-0  10250-3 0  9995","LAUNCH_DATE":"2021-04-07","RCS_SIZE":"LARGE","BSTAR":"0.00010250000000","MEAN_MOTION_DDOT":"0.0000000000000","SEMIMAJOR_AXIS":"6925.364","INCLINATION":"53.0545","SITE":"AFETR","TIME_SYSTEM":"UTC","REF_FRAME":"TEME","PERIAPSIS":"546.130","APOAPSIS":"548.327","ELEMENT_SET_NO":"999","MEAN_ELEMENT_THEORY":"SGP4","CENTER_NAME":"EARTH","OBJECT_ID":"2021-027B","OBJECT_NAME":"STARLINK-2404","RA_OF_ASC_NODE":"210.9805","CLASSIFICATION_TYPE":"U"},{"COUNTRY_CODE":"US","MEAN_ANOMALY":"288.6295","TLE_LINE2":"2 48094  53.0537 220.1121 0001731  71.4882 288.6295 15.06389409 77404","MEAN_MOTION_DOT":"-0.00000462","FILE":"3545624","OBJECT_TYPE":"PAYLOAD","EPHEMERIS_TYPE":"0","MEAN_MOTION":"15.06389409","ECCENTRICITY":"0.00017310","PERIOD":"95.593","DECAY_DATE":null,"REV_AT_EPOCH":"7740","NORAD_CAT_ID":"48094","EPOCH":"2022-08-23T19:16:55.658208","RCS_SIZE":"LARGE","TLE_LINE1":"1 48094U 21027C   22235.80342197 -.00000462  00000-0 -12109-4 0  9996","LAUNCH_DATE":"2021-04-07","ARG_OF_PERICENTER":"71.4882","GP_ID":"210859358","SITE":"AFETR","INCLINATION":"53.0537","SEMIMAJOR_AXIS":"6925.381","BSTAR":"-0.00001210900000","MEAN_MOTION_DDOT":"0.0000000000000","TIME_SYSTEM":"UTC","MEAN_ELEMENT_THEORY":"SGP4","CENTER_NAME":"EARTH","ELEMENT_SET_NO":"999","REF_FRAME":"TEME","PERIAPSIS":"546.047","APOAPSIS":"548.445","CLASSIFICATION_TYPE":"U","OBJECT_NAME":"STARLINK-2412","OBJECT_ID":"2021-027C","RA_OF_ASC_NODE":"220.1121"},{"COUNTRY_CODE":"US","TLE_LINE2":"2 48095  53.0535 222.1483 0001703  65.3356 294.7810 15.06398410 77349","MEAN_ANOMALY":"294.7810","MEAN_MOTION_DOT":"0.00000790","FILE":"3545070","OBJECT_TYPE":"PAYLOAD","EPHEMERIS_TYPE":"0","MEAN_MOTION":"15.06398410","ECCENTRICITY":"0.00017030","PERIOD":"95.592","DECAY_DATE":null,"REV_AT_EPOCH":"7734","NORAD_CAT_ID":"48095","EPOCH":"2022-08-23T08:18:45.375264","RCS_SIZE":"MEDIUM","TLE_LINE1":"1 48095U 21027D   22235.34635851  .00000790  00000-0  71937-4 0  9994","LAUNCH_DATE":"2021-04-07","GP_ID":"210823595","ARG_OF_PERICENTER":"65.3356","SITE":"AFETR","INCLINATION":"53.0535","SEMIMAJOR_AXIS":"6925.353","BSTAR":"0.00007193700000","MEAN_MOTION_DDOT":"0.0000000000000","TIME_SYSTEM":"UTC","MEAN_ELEMENT_THEORY":"SGP4","CENTER_NAME":"EARTH","ELEMENT_SET_NO":"999","REF_FRAME":"TEME","APOAPSIS":"548.398","PERIAPSIS":"546.039","CLASSIFICATION_TYPE":"U","OBJECT_ID":"2021-027D","OBJECT_NAME":"STARLINK-2414","RA_OF_ASC_NODE":"222.1483"},{"GP_ID":"210860854","ARG_OF_PERICENTER":"73.3182","RCS_SIZE":"LARGE","TLE_LINE1":"1 48096U 21027E   22235.65229835 -.00000767  00000-0 -32577-4 0  9993","LAUNCH_DATE":"2021-04-07","DECAY_DATE":null,"EPOCH":"2022-08-23T15:39:18.577440","REV_AT_EPOCH":"7737","NORAD_CAT_ID":"48096","ECCENTRICITY":"0.00015340","PERIOD":"95.593","EPHEMERIS_TYPE":"0","MEAN_MOTION":"15.06391732","MEAN_ANOMALY":"286.7975","TLE_LINE2":"2 48096  53.0537 220.7774 0001534  73.3182 286.7975 15.06391732 77373","MEAN_MOTION_DOT":"-0.00000767","OBJECT_TYPE":"PAYLOAD","FILE":"3545624","COUNTRY_CODE":"US","OBJECT_NAME":"STARLINK-2417","OBJECT_ID":"2021-027E","RA_OF_ASC_NODE":"220.7774","CLASSIFICATION_TYPE":"U","REF_FRAME":"TEME","PERIAPSIS":"546.177","APOAPSIS":"548.301","MEAN_ELEMENT_THEORY":"SGP4","CENTER_NAME":"EARTH","ELEMENT_SET_NO":"999","TIME_SYSTEM":"UTC","SEMIMAJOR_AXIS":"6925.374","BSTAR":"-0.00003257700000","MEAN_MOTION_DDOT":"0.0000000000000","SITE":"AFETR","INCLINATION":"53.0537"},{"REV_AT_EPOCH":"7761","EPOCH":"2022-08-23T08:47:57.199200","NORAD_CAT_ID":"48097","DECAY_DATE":null,"PERIOD":"95.592","ECCENTRICITY":"0.00014990","GP_ID":"210822095","ARG_OF_PERICENTER":"76.2717","TLE_LINE1":"1 48097U 21027F   22235.36663425  .00002346  00000-0  17638-3 0  9992","LAUNCH_DATE":"2021-04-07","RCS_SIZE":"LARGE","COUNTRY_CODE":"US","EPHEMERIS_TYPE":"0","MEAN_MOTION":"15.06397726","OBJECT_TYPE":"PAYLOAD","FILE":"3545070","MEAN_ANOMALY":"283.8438","TLE_LINE2":"2 48097  53.0541 202.0727 0001499  76.2717 283.8438 15.06397726 77614","MEAN_MOTION_DOT":"0.00002346","REF_FRAME":"TEME","PERIAPSIS":"546.182","APOAPSIS":"548.259","ELEMENT_SET_NO":"999","MEAN_ELEMENT_THEORY":"SGP4","CENTER_NAME":"EARTH","OBJECT_NAME":"STARLINK-2418","OBJECT_ID":"2021-027F","RA_OF_ASC_NODE":"202.0727","CLASSIFICATION_TYPE":"U","BSTAR":"0.00017638000000","MEAN_MOTION_DDOT":"0.0000000000000","SEMIMAJOR_AXIS":"6925.356","INCLINATION":"53.0541","SITE":"AFETR","TIME_SYSTEM":"UTC"},{"GP_ID":"210822847","ARG_OF_PERICENTER":"69.5301","TLE_LINE1":"1 48098U 21027G   22235.34359863  .00001809  00000-0  14036-3 0  9991","LAUNCH_DATE":"2021-04-07","RCS_SIZE":"LARGE","EPOCH":"2022-08-23T08:14:46.921632","NORAD_CAT_ID":"48098","REV_AT_EPOCH":"7746","DECAY_DATE":null,"PERIOD":"95.593","ECCENTRICITY":"0.00017000","EPHEMERIS_TYPE":"0","MEAN_MOTION":"15.06394324","FILE":"3545070","OBJECT_TYPE":"PAYLOAD","TLE_LINE2":"2 48098  53.0528 212.1748 0001700  69.5301 290.5871 15.06394324 77464","MEAN_ANOMALY":"290.5871","MEAN_MOTION_DOT":"0.00001809","COUNTRY_CODE":"US","OBJECT_NAME":"STARLINK-2421","OBJECT_ID":"2021-027G","RA_OF_ASC_NODE":"212.1748","CLASSIFICATION_TYPE":"U","REF_FRAME":"TEME","APOAPSIS":"548.408","PERIAPSIS":"546.054","ELEMENT_SET_NO":"999","MEAN_ELEMENT_THEORY":"SGP4","CENTER_NAME":"EARTH","TIME_SYSTEM":"UTC","BSTAR":"0.00014036000000","MEAN_MOTION_DDOT":"0.0000000000000","SEMIMAJOR_AXIS":"6925.366","INCLINATION":"53.0528","SITE":"AFETR"}];
